[Satellite]
VERSION=1.1
NAME=ODIN
NICKNAME=ODIN
TLE1=1 26702U 01007A   19317.07402343 -.00000090  00000-0 -17622-5 0  9993
TLE2=2 26702  97.5676 332.5844 0009446 296.5473  63.4786 15.07887188 24066
STATUS=0
